{
  "type": "FeatureCollection",
  "features": [
    {
      "type": "Feature",
      "properties": {
        "norad_id": 33860,
        "name": "IRIDIUM 33 DEB",
        "group": "iridium-33-debris",
        "lat": 83.58336605371841,
        "lon": 174.04678226361563,
        "alt_km": 662.1424980582842,
        "timestamp": "2025-12-10T09:57:45.082876+00:00",
        "meta_object_name": "IRIDIUM 33 DEB",
        "meta_object_id": "1997-051AD",
        "meta_epoch": "2025-12-09T21:13:16.278816",
        "meta_mean_motion": 14.67309939,
        "meta_eccentricity": 0.0007825,
        "meta_inclination": 86.3835,
        "meta_ra_of_asc_node": 28.5019,
        "meta_arg_of_pericenter": 7.8125,
        "meta_mean_anomaly": 164.8827,
        "meta_ephemeris_type": 0,
        "meta_classification_type": "U",
        "meta_norad_cat_id": 33860,
        "meta_element_set_no": 999,
        "meta_rev_at_epoch": 88680,
        "meta_bstar": 0.0019516,
        "meta_mean_motion_dot": 0.00011043,
        "meta_mean_motion_ddot": 0,
        "tle_line1": "1 33860U 97051AD  25343.88421619  .00011043  00000+0  19516-2 0  9990",
        "tle_line2": "2 33860  86.3835  28.5019 0007825   7.8125 164.8827 14.67309939886802"
      },
      "geometry": {
        "type": "Point",
        "coordinates": [
          174.04678226361563,
          83.58336605371841
        ]
      }
    },
    {
      "type": "Feature",
      "properties": {
        "norad_id": 33862,
        "name": "IRIDIUM 33 DEB",
        "group": "iridium-33-debris",
        "lat": 66.41162812770078,
        "lon": -149.71446757660235,
        "alt_km": 626.0634026796843,
        "timestamp": "2025-12-10T09:57:45.082887+00:00",
        "meta_object_name": "IRIDIUM 33 DEB",
        "meta_object_id": "1997-051AF",
        "meta_epoch": "2025-12-09T10:37:00.405120",
        "meta_mean_motion": 14.69387938,
        "meta_eccentricity": 0.00537298,
        "meta_inclination": 86.4087,
        "meta_ra_of_asc_node": 38.984,
        "meta_arg_of_pericenter": 80.2159,
        "meta_mean_anomaly": 290.4324,
        "meta_ephemeris_type": 0,
        "meta_classification_type": "U",
        "meta_norad_cat_id": 33862,
        "meta_element_set_no": 999,
        "meta_rev_at_epoch": 88775,
        "meta_bstar": 0.0018727165,
        "meta_mean_motion_dot": 0.00011351,
        "meta_mean_motion_ddot": 0,
        "tle_line1": "1 33862U 97051AF  25343.44236580  .00011351  00000+0  18727-2 0  9990",
        "tle_line2": "2 33862  86.4087  38.9840 0053729  80.2159 290.4324 14.69387938887757"
      },
      "geometry": {
        "type": "Point",
        "coordinates": [
          -149.71446757660235,
          66.41162812770078
        ]
      }
    },
    {
      "type": "Feature",
      "properties": {
        "norad_id": 33866,
        "name": "IRIDIUM 33 DEB",
        "group": "iridium-33-debris",
        "lat": -7.865525668748009,
        "lon": -85.46870103902431,
        "alt_km": 733.8737631273034,
        "timestamp": "2025-12-10T09:57:45.082898+00:00",
        "meta_object_name": "IRIDIUM 33 DEB",
        "meta_object_id": "1997-051AK",
        "meta_epoch": "2025-12-09T18:38:03.505344",
        "meta_mean_motion": 14.25259754,
        "meta_eccentricity": 0.0114241,
        "meta_inclination": 86.3,
        "meta_ra_of_asc_node": 94.2893,
        "meta_arg_of_pericenter": 170.8261,
        "meta_mean_anomaly": 341.5576,
        "meta_ephemeris_type": 0,
        "meta_classification_type": "U",
        "meta_norad_cat_id": 33866,
        "meta_element_set_no": 999,
        "meta_rev_at_epoch": 86768,
        "meta_bstar": 0.0012073,
        "meta_mean_motion_dot": 3.058e-05,
        "meta_mean_motion_ddot": 0,
        "tle_line1": "1 33866U 97051AK  25343.77642946  .00003058  00000+0  12073-2 0  9990",
        "tle_line2": "2 33866  86.3000  94.2893 0114241 170.8261 341.5576 14.25259754867688"
      },
      "geometry": {
        "type": "Point",
        "coordinates": [
          -85.46870103902431,
          -7.865525668748009
        ]
      }
    },
    {
      "type": "Feature",
      "properties": {
        "norad_id": 33867,
        "name": "IRIDIUM 33 DEB",
        "group": "iridium-33-debris",
        "lat": 50.23093241489986,
        "lon": 166.9278962671342,
        "alt_km": 367.1771130535244,
        "timestamp": "2025-12-10T09:57:45.082910+00:00",
        "meta_object_name": "IRIDIUM 33 DEB",
        "meta_object_id": "1997-051AL",
        "meta_epoch": "2025-12-10T01:43:40.843200",
        "meta_mean_motion": 15.62710482,
        "meta_eccentricity": 0.0013084,
        "meta_inclination": 86.3647,
        "meta_ra_of_asc_node": 351.486,
        "meta_arg_of_pericenter": 90.2976,
        "meta_mean_anomaly": 269.979,
        "meta_ephemeris_type": 0,
        "meta_classification_type": "U",
        "meta_norad_cat_id": 33867,
        "meta_element_set_no": 999,
        "meta_rev_at_epoch": 89469,
        "meta_bstar": 0.0085299,
        "meta_mean_motion_dot": 0.0083324,
        "meta_mean_motion_ddot": 0,
        "tle_line1": "1 33867U 97051AL  25344.07200050  .00833240  00000+0  85299-2 0  9995",
        "tle_line2": "2 33867  86.3647 351.4860 0013084  90.2976 269.9790 15.62710482894693"
      },
      "geometry": {
        "type": "Point",
        "coordinates": [
          166.9278962671342,
          50.23093241489986
        ]
      }
    },
    {
      "type": "Feature",
      "properties": {
        "norad_id": 33870,
        "name": "IRIDIUM 33 DEB",
        "group": "iridium-33-debris",
        "lat": 65.75245574893033,
        "lon": -128.8350917529342,
        "alt_km": 728.2125728997371,
        "timestamp": "2025-12-10T09:57:45.082920+00:00",
        "meta_object_name": "IRIDIUM 33 DEB",
        "meta_object_id": "1997-051AP",
        "meta_epoch": "2025-12-10T04:43:00.329376",
        "meta_mean_motion": 14.45829008,
        "meta_eccentricity": 0.0021199,
        "meta_inclination": 86.3745,
        "meta_ra_of_asc_node": 59.3507,
        "meta_arg_of_pericenter": 186.3875,
        "meta_mean_anomaly": 230.8437,
        "meta_ephemeris_type": 0,
        "meta_classification_type": "U",
        "meta_norad_cat_id": 33870,
        "meta_element_set_no": 999,
        "meta_rev_at_epoch": 88100,
        "meta_bstar": 0.0011395,
        "meta_mean_motion_dot": 4.073e-05,
        "meta_mean_motion_ddot": 0,
        "tle_line1": "1 33870U 97051AP  25344.19653159  .00004073  00000+0  11395-2 0  9994",
        "tle_line2": "2 33870  86.3745  59.3507 0021199 186.3875 230.8437 14.45829008881000"
      },
      "geometry": {
        "type": "Point",
        "coordinates": [
          -128.8350917529342,
          65.75245574893033
        ]
      }
    },
    {
      "type": "Feature",
      "properties": {
        "norad_id": 33881,
        "name": "IRIDIUM 33 DEB",
        "group": "iridium-33-debris",
        "lat": -73.34074998659419,
        "lon": -60.05737270577447,
        "alt_km": 697.9600236820897,
        "timestamp": "2025-12-10T09:57:45.082930+00:00",
        "meta_object_name": "IRIDIUM 33 DEB",
        "meta_object_id": "1997-051BA",
        "meta_epoch": "2025-12-09T10:01:33.652704",
        "meta_mean_motion": 14.56473135,
        "meta_eccentricity": 0.00614296,
        "meta_inclination": 86.3869,
        "meta_ra_of_asc_node": 108.1859,
        "meta_arg_of_pericenter": 185.4197,
        "meta_mean_anomaly": 241.4979,
        "meta_ephemeris_type": 0,
        "meta_classification_type": "U",
        "meta_norad_cat_id": 33881,
        "meta_element_set_no": 999,
        "meta_rev_at_epoch": 87452,
        "meta_bstar": 0.0028428363,
        "meta_mean_motion_dot": 0.00012995,
        "meta_mean_motion_ddot": 0,
        "tle_line1": "1 33881U 97051BA  25343.41775061  .00012995  00000+0  28428-2 0  9994",
        "tle_line2": "2 33881  86.3869 108.1859 0061429 185.4197 241.4979 14.56473135874525"
      },
      "geometry": {
        "type": "Point",
        "coordinates": [
          -60.05737270577447,
          -73.34074998659419
        ]
      }
    },
    {
      "type": "Feature",
      "properties": {
        "norad_id": 33884,
        "name": "IRIDIUM 33 DEB",
        "group": "iridium-33-debris",
        "lat": 25.378914032709222,
        "lon": 12.593400631758106,
        "alt_km": 632.7925396382607,
        "timestamp": "2025-12-10T09:57:45.082941+00:00",
        "meta_object_name": "IRIDIUM 33 DEB",
        "meta_object_id": "1997-051BD",
        "meta_epoch": "2025-12-10T01:50:22.540128",
        "meta_mean_motion": 14.77342493,
        "meta_eccentricity": 0.0009962,
        "meta_inclination": 86.3694,
        "meta_ra_of_asc_node": 11.0201,
        "meta_arg_of_pericenter": 333.9482,
        "meta_mean_anomaly": 52.6252,
        "meta_ephemeris_type": 0,
        "meta_classification_type": "U",
        "meta_norad_cat_id": 33884,
        "meta_element_set_no": 999,
        "meta_rev_at_epoch": 88808,
        "meta_bstar": 0.0018953,
        "meta_mean_motion_dot": 0.00013509,
        "meta_mean_motion_ddot": 0,
        "tle_line1": "1 33884U 97051BD  25344.07664977  .00013509  00000+0  18953-2 0  9997",
        "tle_line2": "2 33884  86.3694  11.0201 0009962 333.9482  52.6252 14.77342493888085"
      },
      "geometry": {
        "type": "Point",
        "coordinates": [
          12.593400631758106,
          25.378914032709222
        ]
      }
    }
  ]
}